{
  "indexes": [{ "koordinaten": "2dsphere" }],
  "data": [
    {
      "_id": {
        "$oid": "5ca652bf56618187558b4de3"
      },
      "name": "Bar Zentral",
      "strasse": "Lotte-Lenya-Bogen",
      "hausnummer": 551,
      "plz": 10623,
      "webseite": "barzentralde",
      "koordinaten": [13.404954, 52.520008]
    },
    {
      "_id": {
        "$oid": "5ca6544a97aed3878f9b090f"
      },
      "name": "Hefner Bar",
      "strasse": "Kantstr.",
      "hausnummer": 146,
      "plz": 10623,
      "koordinaten": [13.3213093, 42.5055506]
    },
    {
      "_id": {
        "$oid": "5ca654ec97aed3878f9b0910"
      },
      "name": "Bar am Steinplatz",
      "strasse": "Steinplatz",
      "hausnummer": 4,
      "plz": 10623,
      "webseite": "barsteinplatz.com",
      "koordinaten": [13.3241804, 42.5081672]
    },
    {
      "_id": {
        "$oid": "5ca6559e97aed3878f9b0911"
      },
      "name": "Rum Trader",
      "strasse": "Fasanenstr.",
      "hausnummer": 40,
      "plz": 10719,
      "koordinaten": [13.3244667, 42.4984012]
    },
    {
      "_id": {
        "$oid": "5ca655f597aed3878f9b0912"
      },
      "name": "Stairs",
      "strasse": "Uhlandstr.",
      "hausnummer": 133,
      "plz": 10717,
      "webseite": "stairsbar-berlin.com",
      "koordinaten": [13.3215159, 42.49256]
    },
    {
      "_id": {
        "$oid": "5ca656a697aed3878f9b0913"
      },
      "name": "Green Door",
      "strasse": "Winterfeldtstr.",
      "hausnummer": 50,
      "plz": 10781,
      "webseite": "greendoor.de",
      "koordinaten": [13.3507105, 42.4970952]
    },
    {
      "_id": {
        "$oid": "5ca6570597aed3878f9b0914"
      },
      "name": "Mister Hu",
      "strasse": "Goltzstr.",
      "hausnummer": 39,
      "plz": 10781,
      "webseite": "misterhu.de",
      "koordinaten": [13.3511185, 42.4927243]
    },
    {
      "_id": {
        "$oid": "5ca6576f97aed3878f9b0915"
      },
      "name": "Salut!",
      "strasse": "Goltzstr.",
      "hausnummer": 7,
      "plz": 10781,
      "webseite": "salut-berlin.de",
      "koordinaten": [13.3513021, 42.4911044]
    },
    {
      "_id": {
        "$oid": "5ca6581197aed3878f9b0916"
      },
      "name": "Lebensstern",
      "strasse": "KurfÃ¼rstenstr.",
      "hausnummer": 58,
      "plz": 10785,
      "webseite": "lebens-stern.de",
      "koordinaten": [13.3524999, 42.502059]
    },
    {
      "_id": {
        "$oid": "5ca6588397aed3878f9b0917"
      },
      "name": "Victoria Bar",
      "strasse": "Potsdamer Str.",
      "hausnummer": 102,
      "plz": 10785,
      "webseite": "victoriabar.de",
      "koordinaten": [13.3616635, 42.5014176]
    }
  ]
}
